{
  "type": "FeatureCollection",
  "features": [
    {
      "type": "Feature",
      "properties": {
        "norad_id": 37846,
        "name": "GSAT0101 (GALILEO-PFM)",
        "group": "gnss",
        "lat": -51.33047309663603,
        "lon": -139.0876818206623,
        "alt_km": 23224.136454742773,
        "timestamp": "2025-12-14T11:29:50.302340+00:00",
        "meta_object_name": "GSAT0101 (GALILEO-PFM)",
        "meta_object_id": "2011-060A",
        "meta_epoch": "2025-12-12T21:37:17.093856",
        "meta_mean_motion": 1.70475751,
        "meta_eccentricity": 0.00030259,
        "meta_inclination": 57.0527,
        "meta_ra_of_asc_node": 346.8154,
        "meta_arg_of_pericenter": 315.3436,
        "meta_mean_anomaly": 44.6506,
        "meta_ephemeris_type": 0,
        "meta_classification_type": "U",
        "meta_norad_cat_id": 37846,
        "meta_element_set_no": 999,
        "meta_rev_at_epoch": 8794,
        "meta_bstar": 0,
        "meta_mean_motion_dot": -8.7e-07,
        "meta_mean_motion_ddot": 0,
        "tle_line1": "1 37846U 11060A   25346.90089229 -.00000087  00000+0  00000+0 0  9999",
        "tle_line2": "2 37846  57.0527 346.8154 0003025 315.3436  44.6506  1.70475751 87942"
      },
      "geometry": {
        "type": "Point",
        "coordinates": [
          -139.0876818206623,
          -51.33047309663603
        ]
      }
    },
    {
      "type": "Feature",
      "properties": {
        "norad_id": 37847,
        "name": "GSAT0102 (GALILEO-FM2)",
        "group": "gnss",
        "lat": -50.04007879620693,
        "lon": -63.94495095263709,
        "alt_km": 23213.349854021453,
        "timestamp": "2025-12-14T11:29:50.302352+00:00",
        "meta_object_name": "GSAT0102 (GALILEO-FM2)",
        "meta_object_id": "2011-060B",
        "meta_epoch": "2025-12-12T05:47:25.345248",
        "meta_mean_motion": 1.70475905,
        "meta_eccentricity": 0.00049802,
        "meta_inclination": 57.0536,
        "meta_ra_of_asc_node": 346.8337,
        "meta_arg_of_pericenter": 309.4177,
        "meta_mean_anomaly": 51.2149,
        "meta_ephemeris_type": 0,
        "meta_classification_type": "U",
        "meta_norad_cat_id": 37847,
        "meta_element_set_no": 999,
        "meta_rev_at_epoch": 8794,
        "meta_bstar": 0,
        "meta_mean_motion_dot": -8.7e-07,
        "meta_mean_motion_ddot": 0,
        "tle_line1": "1 37847U 11060B   25346.24126557 -.00000087  00000+0  00000+0 0  9993",
        "tle_line2": "2 37847  57.0536 346.8337 0004980 309.4177  51.2149  1.70475905 87941"
      },
      "geometry": {
        "type": "Point",
        "coordinates": [
          -63.94495095263709,
          -50.04007879620693
        ]
      }
    },
    {
      "type": "Feature",
      "properties": {
        "norad_id": 37867,
        "name": "COSMOS 2476 (744)",
        "group": "gnss",
        "lat": -50.07415383811369,
        "lon": 45.57418762858325,
        "alt_km": 19113.549362978316,
        "timestamp": "2025-12-14T11:29:50.302364+00:00",
        "meta_object_name": "COSMOS 2476 (744)",
        "meta_object_id": "2011-064A",
        "meta_epoch": "2025-12-10T19:30:14.482368",
        "meta_mean_motion": 2.13101258,
        "meta_eccentricity": 0.00238922,
        "meta_inclination": 65.1614,
        "meta_ra_of_asc_node": 79.2364,
        "meta_arg_of_pericenter": 233.6597,
        "meta_mean_anomaly": 135.7131,
        "meta_ephemeris_type": 0,
        "meta_classification_type": "U",
        "meta_norad_cat_id": 37867,
        "meta_element_set_no": 999,
        "meta_rev_at_epoch": 10975,
        "meta_bstar": 0,
        "meta_mean_motion_dot": -2.4e-07,
        "meta_mean_motion_ddot": 0,
        "tle_line1": "1 37867U 11064A   25344.81266762 -.00000024  00000+0  00000+0 0  9994",
        "tle_line2": "2 37867  65.1614  79.2364 0023892 233.6597 135.7131  2.13101258109752"
      },
      "geometry": {
        "type": "Point",
        "coordinates": [
          45.57418762858325,
          -50.07415383811369
        ]
      }
    },
    {
      "type": "Feature",
      "properties": {
        "norad_id": 37868,
        "name": "COSMOS 2477 (745)",
        "group": "gnss",
        "lat": 49.70254258114867,
        "lon": -133.8415788206697,
        "alt_km": 19144.051621861865,
        "timestamp": "2025-12-14T11:29:50.302376+00:00",
        "meta_object_name": "COSMOS 2477 (745)",
        "meta_object_id": "2011-064B",
        "meta_epoch": "2025-12-12T21:57:38.702592",
        "meta_mean_motion": 2.13102761,
        "meta_eccentricity": 0.00211332,
        "meta_inclination": 65.1692,
        "meta_ra_of_asc_node": 79.2429,
        "meta_arg_of_pericenter": 234.633,
        "meta_mean_anomaly": 128.5252,
        "meta_ephemeris_type": 0,
        "meta_classification_type": "U",
        "meta_norad_cat_id": 37868,
        "meta_element_set_no": 999,
        "meta_rev_at_epoch": 10979,
        "meta_bstar": 0,
        "meta_mean_motion_dot": -4.4e-07,
        "meta_mean_motion_ddot": 0,
        "tle_line1": "1 37868U 11064B   25346.91503128 -.00000044  00000+0  00000+0 0  9990",
        "tle_line2": "2 37868  65.1692  79.2429 0021133 234.6330 128.5252  2.13102761109791"
      },
      "geometry": {
        "type": "Point",
        "coordinates": [
          -133.8415788206697,
          49.70254258114867
        ]
      }
    },
    {
      "type": "Feature",
      "properties": {
        "norad_id": 37869,
        "name": "COSMOS 2475 (743)",
        "group": "gnss",
        "lat": 62.97721997055244,
        "lon": 144.188897995642,
        "alt_km": 19188.974648300595,
        "timestamp": "2025-12-14T11:29:50.302389+00:00",
        "meta_object_name": "COSMOS 2475 (743)",
        "meta_object_id": "2011-064C",
        "meta_epoch": "2025-12-13T13:22:27.614784",
        "meta_mean_motion": 2.1310138,
        "meta_eccentricity": 0.00262467,
        "meta_inclination": 65.1766,
        "meta_ra_of_asc_node": 79.2411,
        "meta_arg_of_pericenter": 248.6291,
        "meta_mean_anomaly": 203.1701,
        "meta_ephemeris_type": 0,
        "meta_classification_type": "U",
        "meta_norad_cat_id": 37869,
        "meta_element_set_no": 999,
        "meta_rev_at_epoch": 10981,
        "meta_bstar": 0,
        "meta_mean_motion_dot": -5e-07,
        "meta_mean_motion_ddot": 0,
        "tle_line1": "1 37869U 11064C   25347.55726406 -.00000050  00000+0  00000+0 0  9995",
        "tle_line2": "2 37869  65.1766  79.2411 0026246 248.6291 203.1701  2.13101380109814"
      },
      "geometry": {
        "type": "Point",
        "coordinates": [
          144.188897995642,
          62.97721997055244
        ]
      }
    },
    {
      "type": "Feature",
      "properties": {
        "norad_id": 37948,
        "name": "BEIDOU-2 IGSO-5 (C10)",
        "group": "gnss",
        "lat": 45.766484566476834,
        "lon": -18.81257403151033,
        "alt_km": 36166.385351556055,
        "timestamp": "2025-12-14T11:29:50.302408+00:00",
        "meta_object_name": "BEIDOU-2 IGSO-5 (C10)",
        "meta_object_id": "2011-073A",
        "meta_epoch": "2025-12-12T18:24:47.608416",
        "meta_mean_motion": 1.00291151,
        "meta_eccentricity": 0.01101752,
        "meta_inclination": 48.0199,
        "meta_ra_of_asc_node": 273.857,
        "meta_arg_of_pericenter": 222.308,
        "meta_mean_anomaly": 314.7254,
        "meta_ephemeris_type": 0,
        "meta_classification_type": "U",
        "meta_norad_cat_id": 37948,
        "meta_element_set_no": 999,
        "meta_rev_at_epoch": 5126,
        "meta_bstar": 0,
        "meta_mean_motion_dot": -2.21e-06,
        "meta_mean_motion_ddot": 0,
        "tle_line1": "1 37948U 11073A   25346.76721769 -.00000221  00000+0  00000+0 0  9992",
        "tle_line2": "2 37948  48.0199 273.8570 0110175 222.3080 314.7254  1.00291151 51268"
      },
      "geometry": {
        "type": "Point",
        "coordinates": [
          -18.81257403151033,
          45.766484566476834
        ]
      }
    },
    {
      "type": "Feature",
      "properties": {
        "norad_id": 37951,
        "name": "LUCH 5A (SDCM/PRN 140)",
        "group": "gnss",
        "lat": -1.9221756562191405,
        "lon": 63.09328103925181,
        "alt_km": 35807.705451431415,
        "timestamp": "2025-12-14T11:29:50.302423+00:00",
        "meta_object_name": "LUCH 5A (SDCM/PRN 140)",
        "meta_object_id": "2011-074B",
        "meta_epoch": "2025-12-13T14:35:22.968672",
        "meta_mean_motion": 1.00275218,
        "meta_eccentricity": 0.00054667,
        "meta_inclination": 8.2823,
        "meta_ra_of_asc_node": 76.5731,
        "meta_arg_of_pericenter": 181.6364,
        "meta_mean_anomaly": 210.2509,
        "meta_ephemeris_type": 0,
        "meta_classification_type": "U",
        "meta_norad_cat_id": 37951,
        "meta_element_set_no": 999,
        "meta_rev_at_epoch": 5119,
        "meta_bstar": 0,
        "meta_mean_motion_dot": -3.6e-07,
        "meta_mean_motion_ddot": 0,
        "tle_line1": "1 37951U 11074B   25347.60790473 -.00000036  00000+0  00000+0 0  9993",
        "tle_line2": "2 37951   8.2823  76.5731 0005466 181.6364 210.2509  1.00275218 51190"
      },
      "geometry": {
        "type": "Point",
        "coordinates": [
          63.09328103925181,
          -1.9221756562191405
        ]
      }
    }
  ]
}